HIMAWARI-8              
1 40267U 14060A   23311.92695802 -.00000265  00000+0  00000+0 0  9993
2 40267   0.0153 135.7575 0000980  80.4014 305.0746  1.00269723 33312
